[{"OBJECT_NAME":"LEMUR-2-UNTITLED-SC","OBJECT_ID":"2025-061A","EPOCH":"2026-03-09T21:24:38.388672","MEAN_MOTION":15.12695529,"ECCENTRICITY":0.00173727,"INCLINATION":97.5556,"RA_OF_ASC_NODE":45.0864,"ARG_OF_PERICENTER":245.603,"MEAN_ANOMALY":114.3388,"EPHEMERIS_TYPE":0,"CLASSIFICATION_TYPE":"U","NORAD_CAT_ID":63351,"ELEMENT_SET_NO":999,"REV_AT_EPOCH":5257,"BSTAR":0.00033295729,"MEAN_MOTION_DOT":5.783e-5,"MEAN_MOTION_DDOT":0},{"OBJECT_NAME":"OBJECT B","OBJECT_ID":"2026-027B","EPOCH":"2026-03-09T21:35:20.668992","MEAN_MOTION":15.17815947,"ECCENTRICITY":0.00102981,"INCLINATION":97.4898,"RA_OF_ASC_NODE":197.9122,"ARG_OF_PERICENTER":196.2876,"MEAN_ANOMALY":163.8028,"EPHEMERIS_TYPE":0,"CLASSIFICATION_TYPE":"U","NORAD_CAT_ID":67747,"ELEMENT_SET_NO":999,"REV_AT_EPOCH":389,"BSTAR":0.00052180304,"MEAN_MOTION_DOT":0.00010507,"MEAN_MOTION_DDOT":0}]
